{
  "type": "FeatureCollection",
  "features": [
    {
      "type": "Feature",
      "properties": {
        "norad_id": 28054,
        "name": "DMSP 5D-3 F16 (USA 172)",
        "group": "weather",
        "lat": 71.51382542406803,
        "lon": -34.56597298922427,
        "alt_km": 836.6099404225688,
        "timestamp": "2025-12-02T08:59:32.361970+00:00",
        "meta_object_name": "DMSP 5D-3 F16 (USA 172)",
        "meta_object_id": "2003-048A",
        "meta_epoch": "2025-12-02T03:57:48.176352",
        "meta_mean_motion": 14.14418018,
        "meta_eccentricity": 0.0006944,
        "meta_inclination": 99.0054,
        "meta_ra_of_asc_node": 353.5386,
        "meta_arg_of_pericenter": 352.9295,
        "meta_mean_anomaly": 94.4518,
        "meta_ephemeris_type": 0,
        "meta_classification_type": "U",
        "meta_norad_cat_id": 28054,
        "meta_element_set_no": 999,
        "meta_rev_at_epoch": 14163,
        "meta_bstar": 0.00011684,
        "meta_mean_motion_dot": 1.78e-06,
        "meta_mean_motion_ddot": 0,
        "tle_line1": "1 28054U 03048A   25336.16514093  .00000178  00000+0  11684-3 0  9990",
        "tle_line2": "2 28054  99.0054 353.5386 0006944 352.9295  94.4518 14.14418018141637"
      },
      "geometry": {
        "type": "Point",
        "coordinates": [
          -34.56597298922427,
          71.51382542406803
        ]
      }
    },
    {
      "type": "Feature",
      "properties": {
        "norad_id": 28912,
        "name": "METEOSAT-9 (MSG-2)",
        "group": "weather",
        "lat": -2.4532220905876945,
        "lon": -108.22278643358507,
        "alt_km": 35770.15909444924,
        "timestamp": "2025-12-02T08:59:32.362020+00:00",
        "meta_object_name": "METEOSAT-9 (MSG-2)",
        "meta_object_id": "2005-049B",
        "meta_epoch": "2025-12-01T19:10:06.009024",
        "meta_mean_motion": 1.00270834,
        "meta_eccentricity": 0.0003965,
        "meta_inclination": 8.913,
        "meta_ra_of_asc_node": 56.0742,
        "meta_arg_of_pericenter": 184.2976,
        "meta_mean_anomaly": 163.6684,
        "meta_ephemeris_type": 0,
        "meta_classification_type": "U",
        "meta_norad_cat_id": 28912,
        "meta_element_set_no": 999,
        "meta_rev_at_epoch": 501,
        "meta_bstar": 0,
        "meta_mean_motion_dot": 1.42e-06,
        "meta_mean_motion_ddot": 0,
        "tle_line1": "1 28912U 05049B   25335.79868066  .00000142  00000+0  00000+0 0  9993",
        "tle_line2": "2 28912   8.9130  56.0742 0003965 184.2976 163.6684  1.00270834  5014"
      },
      "geometry": {
        "type": "Point",
        "coordinates": [
          -108.22278643358507,
          -2.4532220905876945
        ]
      }
    },
    {
      "type": "Feature",
      "properties": {
        "norad_id": 29522,
        "name": "DMSP 5D-3 F17 (USA 191)",
        "group": "weather",
        "lat": -4.048475033519328,
        "lon": -17.39675567024496,
        "alt_km": 847.0097328155889,
        "timestamp": "2025-12-02T08:59:32.362039+00:00",
        "meta_object_name": "DMSP 5D-3 F17 (USA 191)",
        "meta_object_id": "2006-050A",
        "meta_epoch": "2025-12-01T19:26:03.401376",
        "meta_mean_motion": 14.14911795,
        "meta_eccentricity": 0.0009132,
        "meta_inclination": 98.7395,
        "meta_ra_of_asc_node": 341.4263,
        "meta_arg_of_pericenter": 259.046,
        "meta_mean_anomaly": 100.9686,
        "meta_ephemeris_type": 0,
        "meta_classification_type": "U",
        "meta_norad_cat_id": 29522,
        "meta_element_set_no": 999,
        "meta_rev_at_epoch": 98450,
        "meta_bstar": 0.00012476,
        "meta_mean_motion_dot": 1.98e-06,
        "meta_mean_motion_ddot": 0,
        "tle_line1": "1 29522U 06050A   25335.80976159  .00000198  00000+0  12476-3 0  9994",
        "tle_line2": "2 29522  98.7395 341.4263 0009132 259.0460 100.9686 14.14911795984505"
      },
      "geometry": {
        "type": "Point",
        "coordinates": [
          -17.39675567024496,
          -4.048475033519328
        ]
      }
    },
    {
      "type": "Feature",
      "properties": {
        "norad_id": 32958,
        "name": "FENGYUN 3A",
        "group": "weather",
        "lat": -75.757615125385,
        "lon": 59.17863072916842,
        "alt_km": 833.6439714823891,
        "timestamp": "2025-12-02T08:59:32.362052+00:00",
        "meta_object_name": "FENGYUN 3A",
        "meta_object_id": "2008-026A",
        "meta_epoch": "2025-12-02T02:42:06.850656",
        "meta_mean_motion": 14.19508922,
        "meta_eccentricity": 0.0008417,
        "meta_inclination": 98.6682,
        "meta_ra_of_asc_node": 275.864,
        "meta_arg_of_pericenter": 343.0691,
        "meta_mean_anomaly": 17.0203,
        "meta_ephemeris_type": 0,
        "meta_classification_type": "U",
        "meta_norad_cat_id": 32958,
        "meta_element_set_no": 999,
        "meta_rev_at_epoch": 90744,
        "meta_bstar": 8.5569e-05,
        "meta_mean_motion_dot": 1.37e-06,
        "meta_mean_motion_ddot": 0,
        "tle_line1": "1 32958U 08026A   25336.11257929  .00000137  00000+0  85569-4 0  9995",
        "tle_line2": "2 32958  98.6682 275.8640 0008417 343.0691  17.0203 14.19508922907444"
      },
      "geometry": {
        "type": "Point",
        "coordinates": [
          59.17863072916842,
          -75.757615125385
        ]
      }
    },
    {
      "type": "Feature",
      "properties": {
        "norad_id": 35491,
        "name": "GOES 14",
        "group": "weather",
        "lat": 0.26628454474044017,
        "lon": 97.96028820509329,
        "alt_km": 35798.59636219826,
        "timestamp": "2025-12-02T08:59:32.362066+00:00",
        "meta_object_name": "GOES 14",
        "meta_object_id": "2009-033A",
        "meta_epoch": "2025-12-02T02:59:47.491008",
        "meta_mean_motion": 1.00272662,
        "meta_eccentricity": 0.000414,
        "meta_inclination": 1.1693,
        "meta_ra_of_asc_node": 85.5322,
        "meta_arg_of_pericenter": 149.1671,
        "meta_mean_anomaly": 133.1394,
        "meta_ephemeris_type": 0,
        "meta_classification_type": "U",
        "meta_norad_cat_id": 35491,
        "meta_element_set_no": 999,
        "meta_rev_at_epoch": 461,
        "meta_bstar": 0,
        "meta_mean_motion_dot": -4.7e-07,
        "meta_mean_motion_ddot": 0,
        "tle_line1": "1 35491U 09033A   25336.12485522 -.00000047  00000+0  00000+0 0  9995",
        "tle_line2": "2 35491   1.1693  85.5322 0004140 149.1671 133.1394  1.00272662  4618"
      },
      "geometry": {
        "type": "Point",
        "coordinates": [
          97.96028820509329,
          0.26628454474044017
        ]
      }
    },
    {
      "type": "Feature",
      "properties": {
        "norad_id": 35951,
        "name": "DMSP 5D-3 F18 (USA 210)",
        "group": "weather",
        "lat": -48.23063017702369,
        "lon": 122.74421349764731,
        "alt_km": 856.54423418844,
        "timestamp": "2025-12-02T08:59:32.362079+00:00",
        "meta_object_name": "DMSP 5D-3 F18 (USA 210)",
        "meta_object_id": "2009-057A",
        "meta_epoch": "2025-12-02T04:31:11.534016",
        "meta_mean_motion": 14.14759126,
        "meta_eccentricity": 0.0012104,
        "meta_inclination": 98.8822,
        "meta_ra_of_asc_node": 312.6425,
        "meta_arg_of_pericenter": 90.1662,
        "meta_mean_anomaly": 270.0898,
        "meta_ephemeris_type": 0,
        "meta_classification_type": "U",
        "meta_norad_cat_id": 35951,
        "meta_element_set_no": 999,
        "meta_rev_at_epoch": 83173,
        "meta_bstar": 0.00017967,
        "meta_mean_motion_dot": 3.02e-06,
        "meta_mean_motion_ddot": 0,
        "tle_line1": "1 35951U 09057A   25336.18832794  .00000302  00000+0  17967-3 0  9992",
        "tle_line2": "2 35951  98.8822 312.6425 0012104  90.1662 270.0898 14.14759126831733"
      },
      "geometry": {
        "type": "Point",
        "coordinates": [
          122.74421349764731,
          -48.23063017702369
        ]
      }
    },
    {
      "type": "Feature",
      "properties": {
        "norad_id": 36411,
        "name": "EWS-G2 (GOES 15)",
        "group": "weather",
        "lat": -0.042365109842394,
        "lon": -92.1323950932492,
        "alt_km": 35762.85647951465,
        "timestamp": "2025-12-02T08:59:32.362093+00:00",
        "meta_object_name": "EWS-G2 (GOES 15)",
        "meta_object_id": "2010-008A",
        "meta_epoch": "2025-12-02T03:48:18.110016",
        "meta_mean_motion": 1.00267539,
        "meta_eccentricity": 0.0005903,
        "meta_inclination": 0.7853,
        "meta_ra_of_asc_node": 86.0559,
        "meta_arg_of_pericenter": 169.3361,
        "meta_mean_anomaly": 294.4691,
        "meta_ephemeris_type": 0,
        "meta_classification_type": "U",
        "meta_norad_cat_id": 36411,
        "meta_element_set_no": 999,
        "meta_rev_at_epoch": 5766,
        "meta_bstar": 0,
        "meta_mean_motion_dot": 5.8e-07,
        "meta_mean_motion_ddot": 0,
        "tle_line1": "1 36411U 10008A   25336.15854294  .00000058  00000+0  00000+0 0  9992",
        "tle_line2": "2 36411   0.7853  86.0559 0005903 169.3361 294.4691  1.00267539 57661"
      },
      "geometry": {
        "type": "Point",
        "coordinates": [
          -92.1323950932492,
          -0.042365109842394
        ]
      }
    }
  ]
}